CTC1_L_00538024-03
1 10186U 25473TR  26075.70038194  .00000000  00000+0  00000-0 0  9998
2 10186  99.3000 276.0000 0000000   0.0000 228.0000 13.69880518    16
CTC1_L_00538024-04
1 10187U 23492SV  26075.70038194  .00000000  00000+0  00000-0 0  9998
2 10187  99.3000 276.0000 0000000   0.0000 273.0000 13.69880518    17
CTC1_L_00538024-05
1 10188U 25230CF  26075.70038194  .00000000  00000+0  00000-0 0  9991
2 10188  99.3000 276.0000 0000000   0.0000 318.0000 13.69880518    18
CTC1_L_00538024-06
1 10189U 23182MQ  26075.70038194  .00000000  00000+0  00000-0 0  9996
2 10189  99.3000 276.0000 0000000   0.0000   3.0000 13.69880518    10
CTC1_L_00538024-07
1 10190U 22446BF  26075.70038194  .00000000  00000+0  00000-0 0  9990
2 10190  99.3000 276.0000 0000000   0.0000  48.0000 13.69880518    11
CTC1_L_00538024-08
1 10191U 24225QF  26075.70038194  .00000000  00000+0  00000-0 0  9998
2 10191  99.3000 276.0000 0000000   0.0000  93.0000 13.69880518    12
CTC1_L_00538025-01
1 10192U 23929IP  26075.70038194  .00000000  00000+0  00000-0 0  9999
2 10192  99.3000 288.0000 0000000   0.0000 144.0000 13.69880518    13
CTC1_L_00538025-02
1 10193U 24621CY  26075.70038194  .00000000  00000+0  00000-0 0  9990
2 10193  99.3000 288.0000 0000000   0.0000 189.0000 13.69880518    13
CTC1_L_00538025-03
1 10194U 23217QB  26075.70038194  .00000000  00000+0  00000-0 0  9991
2 10194  99.3000 288.0000 0000000   0.0000 234.0000 13.69880518    15
CTC1_L_00538025-04
1 10195U 24976UB  26075.70038194  .00000000  00000+0  00000-0 0  9995
2 10195  99.3000 288.0000 0000000   0.0000 279.0000 13.69880518    15
CTC1_L_00538025-05
1 10196U 23863LG  26075.70038194  .00000000  00000+0  00000-0 0  9990
2 10196  99.3000 288.0000 0000000   0.0000 324.0000 13.69880518    17
CTC1_L_00538025-06
1 10197U 25842DG  26075.70038194  .00000000  00000+0  00000-0 0  9990
2 10197  99.3000 288.0000 0000000   0.0000   9.0000 13.69880518    18
CTC1_L_00538025-07
1 10198U 23758K   26075.70038194  .00000000  00000+0  00000-0 0  9995
2 10198  99.3000 288.0000 0000000   0.0000  54.0000 13.69880518    19
CTC1_L_00538025-08
1 10199U 25646QR  26075.70038194  .00000000  00000+0  00000-0 0  9994
2 10199  99.3000 288.0000 0000000   0.0000  99.0000 13.69880518    19
CTC1_L_00538026-01
1 10200U 24804YV  26075.70038194  .00000000  00000+0  00000-0 0  9992
2 10200  99.3000 300.0000 0000000   0.0000 150.0000 13.69880518    15
CTC1_L_00538026-02
1 10201U 24203QZ  26075.70038194  .00000000  00000+0  00000-0 0  9996
2 10201  99.3000 300.0000 0000000   0.0000 195.0000 13.69880518    15
CTC1_L_00538026-03
1 10202U 22156ZP  26075.70038194  .00000000  00000+0  00000-0 0  9992
2 10202  99.3000 300.0000 0000000   0.0000 240.0000 13.69880518    17
CTC1_L_00538026-04
1 10203U 25390NU  26075.70038194  .00000000  00000+0  00000-0 0  9996
2 10203  99.3000 300.0000 0000000   0.0000 285.0000 13.69880518    17
CTC1_L_00538026-05
1 10204U 24080NK  26075.70038194  .00000000  00000+0  00000-0 0  9992
2 10204  99.3000 300.0000 0000000   0.0000 330.0000 13.69880518    19
CTC1_L_00538026-06
1 10205U 23911YA  26075.70038194  .00000000  00000+0  00000-0 0  9995
2 10205  99.3000 300.0000 0000000   0.0000  15.0000 13.69880518    10
CTC1_L_00538026-07
1 10206U 22755ES  26075.70038194  .00000000  00000+0  00000-0 0  9991
2 10206  99.3000 300.0000 0000000   0.0000  60.0000 13.69880518    11
CTC1_L_00538026-08
1 10207U 23170TY  26075.70038194  .00000000  00000+0  00000-0 0  9994
2 10207  99.3000 300.0000 0000000   0.0000 105.0000 13.69880518    12
CTC1_L_00538027-01
1 10208U 26708TR  26075.70038194  .00000000  00000+0  00000-0 0  9995
2 10208  99.3000 312.0000 0000000   0.0000 156.0000 13.69880518    12
CTC1_L_00538027-02
1 10209U 22397IV  26075.70038194  .00000000  00000+0  00000-0 0  9996
2 10209  99.3000 312.0000 0000000   0.0000 201.0000 13.69880518    14
CTC1_L_00538027-03
1 10210U 23386GS  26075.70038194  .00000000  00000+0  00000-0 0  9997
2 10210  99.3000 312.0000 0000000   0.0000 246.0000 13.69880518    15
CTC1_L_00538027-04
1 10211U 22031BT  26075.70038194  .00000000  00000+0  00000-0 0  9994
2 10211  99.3000 312.0000 0000000   0.0000 291.0000 13.69880518    16
CTC1_L_00538027-05
1 10212U 24873OF  26075.70038194  .00000000  00000+0  00000-0 0  9991
2 10212  99.3000 312.0000 0000000   0.0000 336.0000 13.69880518    17
CTC1_L_00538027-06
1 10213U 23520ZN  26075.70038194  .00000000  00000+0  00000-0 0  9990
2 10213  99.3000 312.0000 0000000   0.0000  21.0000 13.69880518    19
CTC1_L_00538027-07
1 10214U 25544EH  26075.70038194  .00000000  00000+0  00000-0 0  9999
2 10214  99.3000 312.0000 0000000   0.0000  66.0000 13.69880518    19
CTC1_L_00538027-08
1 10215U 23335AJ  26075.70038194  .00000000  00000+0  00000-0 0  9996
2 10215  99.3000 312.0000 0000000   0.0000 111.0000 13.69880518    11
CTC1_L_00538028-01
1 10216U 25830GL  26075.70038194  .00000000  00000+0  00000-0 0  9999
2 10216  99.3000 324.0000 0000000   0.0000 162.0000 13.69880518    11
CTC1_L_00538028-02
1 10217U 24353LK  26075.70038194  .00000000  00000+0  00000-0 0  9999
2 10217  99.3000 324.0000 0000000   0.0000 207.0000 13.69880518    12
CTC1_L_00538028-03
1 10218U 24372SO  26075.70038194  .00000000  00000+0  00000-0 0  9991
2 10218  99.3000 324.0000 0000000   0.0000 252.0000 13.69880518    13
CTC1_L_00538028-04
1 10219U 22157LN  26075.70038194  .00000000  00000+0  00000-0 0  9991
2 10219  99.3000 324.0000 0000000   0.0000 297.0000 13.69880518    13
CTC1_L_00538028-05
1 10220U 22765DL  26075.70038194  .00000000  00000+0  00000-0 0  9998
2 10220  99.3000 324.0000 0000000   0.0000 342.0000 13.69880518    16
CTC1_L_00538028-06
1 10221U 22621QR  26075.70038194  .00000000  00000+0  00000-0 0  9990
2 10221  99.3000 324.0000 0000000   0.0000  27.0000 13.69880518    17
CTC1_L_00538028-07
1 10222U 26453PC  26075.70038194  .00000000  00000+0  00000-0 0  9998
2 10222  99.3000 324.0000 0000000   0.0000  72.0000 13.69880518    18
CTC1_L_00538028-08
1 10223U 23980QG  26075.70038194  .00000000  00000+0  00000-0 0  9991
2 10223  99.3000 324.0000 0000000   0.0000 117.0000 13.69880518    19
CTC1_L_00538029-01
1 10224U 23736GR  26075.70038194  .00000000  00000+0  00000-0 0  9991
2 10224  99.3000 336.0000 0000000   0.0000 168.0000 13.69880518    19
CTC1_L_00538029-02
1 10225U 25828WQ  26075.70038194  .00000000  00000+0  00000-0 0  9996
2 10225  99.3000 336.0000 0000000   0.0000 213.0000 13.69880518    11
CTC1_L_00538029-03
1 10226U 23120OO  26075.70038194  .00000000  00000+0  00000-0 0  9990
2 10226  99.3000 336.0000 0000000   0.0000 258.0000 13.69880518    11
CTC1_L_00538029-04
1 10227U 24601NE  26075.70038194  .00000000  00000+0  00000-0 0  9996
2 10227  99.3000 336.0000 0000000   0.0000 303.0000 13.69880518    13
CTC1_L_00538029-05
1 10228U 25459ZV  26075.70038194  .00000000  00000+0  00000-0 0  9999
2 10228  99.3000 336.0000 0000000   0.0000 348.0000 13.69880518    13
CTC1_L_00538029-06
1 10229U 22898FP  26075.70038194  .00000000  00000+0  00000-0 0  9994
2 10229  99.3000 336.0000 0000000   0.0000  33.0000 13.69880518    15
CTC1_L_00538029-07
1 10230U 23677LK  26075.70038194  .00000000  00000+0  00000-0 0  9992
2 10230  99.3000 336.0000 0000000   0.0000  78.0000 13.69880518    16
CTC1_L_00538029-08
1 10231U 26485GO  26075.70038194  .00000000  00000+0  00000-0 0  9993
2 10231  99.3000 336.0000 0000000   0.0000 123.0000 13.69880518    18
CTC1_L_00538030-01
1 10232U 26797NI  26075.70038194  .00000000  00000+0  00000-0 0  9990
2 10232  99.3000 348.0000 0000000   0.0000 174.0000 13.69880518    18
CTC1_L_00538030-02
1 10233U 26646NJ  26075.70038194  .00000000  00000+0  00000-0 0  9994
2 10233  99.3000 348.0000 0000000   0.0000 219.0000 13.69880518    19
CTC1_L_00538030-03
1 10234U 23800CW  26075.70038194  .00000000  00000+0  00000-0 0  9994
2 10234  99.3000 348.0000 0000000   0.0000 264.0000 13.69880518    10
CTC1_L_00538030-04
1 10235U 26026SZ  26075.70038194  .00000000  00000+0  00000-0 0  9998
2 10235  99.3000 348.0000 0000000   0.0000 309.0000 13.69880518    11
CTC1_L_00538030-05
1 10236U 26610HT  26075.70038194  .00000000  00000+0  00000-0 0  9998
2 10236  99.3000 348.0000 0000000   0.0000 354.0000 13.69880518    12
CTC1_L_00538030-06
1 10237U 24368VS  26075.70038194  .00000000  00000+0  00000-0 0  9997
2 10237  99.3000 348.0000 0000000   0.0000  39.0000 13.69880518    13
CTC1_L_00538030-07
1 10238U 24318K   26075.70038194  .00000000  00000+0  00000-0 0  9993
2 10238  99.3000 348.0000 0000000   0.0000  84.0000 13.69880518    14
CTC1_L_00538030-08
1 10239U 25406QB  26075.70038194  .00000000  00000+0  00000-0 0  9993
2 10239  99.3000 348.0000 0000000   0.0000 129.0000 13.69880518    15
